{"type": "FeatureCollection", "features": [{"type": "Feature", "properties": {"id": "roman", "name": "Empire romain \u2014 sch\u00e9ma p\u00e9dagogique", "from": -27, "to": 395, "confidence": 0.45}, "geometry": {"type": "Polygon", "coordinates": [[[-5, 36], [0, 42], [5, 44], [10, 46], [15, 48], [25, 48], [35, 43], [38, 36], [28, 32], [18, 31], [8, 30], [-2, 31], [-5, 36]]]}}, {"type": "Feature", "properties": {"id": "france1789", "name": "France \u2014 sch\u00e9ma p\u00e9dagogique vers 1789", "from": 1789, "to": 1792, "confidence": 0.65}, "geometry": {"type": "Polygon", "coordinates": [[[-5, 43], [-1, 49], [2, 51], [8, 50], [9, 45], [7, 43], [3, 42], [-5, 43]]]}}]}